[{"OBJECT_NAME":"ONEWEB-0510","OBJECT_ID":"2022-138R","EPOCH":"2026-03-09T15:54:27.204768","MEAN_MOTION":13.20770277,"ECCENTRICITY":0.00016646,"INCLINATION":87.9172,"RA_OF_ASC_NODE":294.3077,"ARG_OF_PERICENTER":68.6527,"MEAN_ANOMALY":291.4784,"EPHEMERIS_TYPE":0,"CLASSIFICATION_TYPE":"U","NORAD_CAT_ID":54128,"ELEMENT_SET_NO":999,"REV_AT_EPOCH":16614,"BSTAR":0.00016457728,"MEAN_MOTION_DOT":8.0e-7,"MEAN_MOTION_DDOT":0},{"OBJECT_NAME":"COSMOS 1275 DEB","OBJECT_ID":"1981-053NJ","EPOCH":"2026-03-03T04:37:54.258240","MEAN_MOTION":13.57340555,"ECCENTRICITY":0.01922991,"INCLINATION":83.0661,"RA_OF_ASC_NODE":2.1472,"ARG_OF_PERICENTER":325.902,"MEAN_ANOMALY":99.875,"EPHEMERIS_TYPE":0,"CLASSIFICATION_TYPE":"U","NORAD_CAT_ID":39948,"ELEMENT_SET_NO":999,"REV_AT_EPOCH":57980,"BSTAR":0.0017692447,"MEAN_MOTION_DOT":1.438e-5,"MEAN_MOTION_DDOT":0}]
